{
  "type" : "FeatureCollection",
  "name" : "boundaries_relational",
  "crs" : {
    "type" : "name",
    "properties" : {
      "name" : "urn:ogc:def:crs:OGC:1.3:CRS84"
    }
  },
  "metadata" : {
    "country" : "china",
    "continent" : "asia",
    "admin_levels" : [ "2", "4", "5", "6", "8" ],
    "country_codes" : [ "CN" ],
    "fetch_nodes" : true,
    "warning_messages" : [ "More than 10% of boundaries have no country code", "Final admin levels are not the same as the original admin levels" ],
    "relations_raw_count" : 29647,
    "ways_raw_count" : 98922,
    "nodes_raw_count" : 6076614,
    "relations_raw_count_after_removal" : 29626,
    "fetched_ways_count" : 54,
    "missing_nodes_count" : 5946,
    "fetched_nodes_count" : 310,
    "ways_simplified_count" : 98976,
    "built_boundaries_count" : 21632,
    "boundary_centres_count" : 24986,
    "missing_parent_boundary_references_count" : 122,
    "missing_country_code_count" : 21509,
    "final_boundaries_count" : 1,
    "final_country_codes" : [ "CN" ],
    "final_admin_levels" : [ "2" ],
    "final_boundary_centres_count" : 1,
    "boundary_count_per_admin_level" : {
      "2" : 1
    },
    "admin_centres_from_osm_percentage" : 1.0
  },
  "features" : [ {
    "type" : "Feature",
    "properties" : {
      "osm_id" : "270056",
      "admin_level" : "2",
      "country_code" : "CN",
      "name" : "中国",
      "population" : "1425671352",
      "wikidata" : "Q148",
      "wikipedia" : "zh:中华人民共和国",
      "name_props" : {
        "name:aa" : "China",
        "name:ab" : "Чынҭ",
        "name:af" : "China",
        "name:ak" : "China",
        "name:am" : "የቻይና",
        "name:an" : "China",
        "name:ar" : "الصين",
        "name:as" : "চীন",
        "name:av" : "Чин",
        "name:ay" : "China",
        "name:az" : "Çin",
        "name:ba" : "Ҡытай",
        "name:be" : "Кітай",
        "name:bg" : "Китай",
        "name:bh" : "चीन",
        "name:bi" : "Jaena",
        "name:bm" : "China",
        "name:bn" : "গণচীন",
        "name:bo" : "ཀྲུང་གོ།",
        "name:br" : "Sina",
        "name:bs" : "Kina",
        "name:ca" : "Xina",
        "name:ce" : "Цийн-мохк",
        "name:ch" : "China",
        "name:co" : "China",
        "name:cs" : "Čína",
        "name:cu" : "Срѣдинꙗнє",
        "name:cv" : "Китай",
        "name:cy" : "Tsieina",
        "name:da" : "Kina",
        "name:de" : "China",
        "name:dv" : "ސީނުކަރަ",
        "name:dz" : "རྒྱ་ནག",
        "name:ee" : "China",
        "name:el" : "Κίνα",
        "name:en" : "China",
        "name:eo" : "Ĉinio",
        "name:es" : "China",
        "name:et" : "Hiina",
        "name:eu" : "Txina",
        "name:fa" : "چین",
        "name:ff" : "Ciina",
        "name:fi" : "Kiina",
        "name:fj" : "Jaina",
        "name:fo" : "Kina",
        "name:fr" : "Chine",
        "name:fy" : "Sina",
        "name:ga" : "Síne",
        "name:gd" : "Sìona",
        "name:gl" : "China",
        "name:gn" : "Chína",
        "name:gu" : "ચીન",
        "name:gv" : "Sheen",
        "name:ha" : "Sin",
        "name:he" : "סין",
        "name:hi" : "चीन",
        "name:hr" : "Kina",
        "name:ht" : "Chin",
        "name:hu" : "Kína",
        "name:hy" : "Չինաստան",
        "name:ia" : "China",
        "name:id" : "Tiongkok",
        "name:ie" : "China",
        "name:ig" : "Chaina",
        "name:ii" : "ꍏꇩ",
        "name:ik" : "China",
        "name:io" : "Chinia",
        "name:is" : "Kína",
        "name:it" : "Cina",
        "name:iu" : "ᓴᐃᓇ",
        "name:ja" : "中国",
        "name:jv" : "Cina",
        "name:ka" : "ჩინეთი",
        "name:kg" : "Sina",
        "name:ki" : "China",
        "name:kk" : "Қытай",
        "name:kl" : "Kina",
        "name:km" : "ចិន",
        "name:kn" : "ಚೀನಿ",
        "name:ko" : "중국",
        "name:ks" : "چیٖن",
        "name:ku" : "Çîn",
        "name:kv" : "Китай",
        "name:kw" : "China",
        "name:ky" : "Кытай",
        "name:la" : "Sinae",
        "name:lb" : "China",
        "name:lg" : "Cayina",
        "name:li" : "China",
        "name:ln" : "Sína",
        "name:lo" : "ປະເທດຈີນ",
        "name:lt" : "Kinija",
        "name:lv" : "Ķīna",
        "name:mg" : "Sina",
        "name:mi" : "Haina",
        "name:mk" : "Кина",
        "name:ml" : "ചീന",
        "name:mn" : "Хятад",
        "name:mr" : "चीन",
        "name:ms" : "China",
        "name:mt" : "Ċina",
        "name:my" : "တရုတ်",
        "name:na" : "Tsiene",
        "name:nb" : "Kina",
        "name:ne" : "चीन",
        "name:nl" : "China",
        "name:nn" : "Kina",
        "name:no" : "Kina",
        "name:nv" : "Tsiiʼyishbizhí Dineʼé Bikéyah",
        "name:ny" : "China",
        "name:oc" : "China",
        "name:om" : "Chaayinaan",
        "name:or" : "ଚୀନ",
        "name:os" : "Китай",
        "name:pa" : "ਚੀਨ",
        "name:pl" : "Chiny",
        "name:ps" : "چين",
        "name:pt" : "China",
        "name:qu" : "Chunkuk",
        "name:rm" : "China",
        "name:rn" : "Ubushinwa",
        "name:ro" : "China",
        "name:ru" : "Китай",
        "name:rw" : "Ubushinwa",
        "name:sc" : "Cina",
        "name:sd" : "چين",
        "name:se" : "Kiinná",
        "name:sg" : "Sînä",
        "name:sh" : "Kina",
        "name:si" : "චීනය",
        "name:sk" : "Čína",
        "name:sl" : "Kitájska",
        "name:sm" : "Saina",
        "name:sn" : "China",
        "name:so" : "Shiinaha",
        "name:sq" : "Kina",
        "name:sr" : "Кина",
        "name:ss" : "iShayina",
        "name:st" : "Tjhaena",
        "name:su" : "Tiongkok",
        "name:sv" : "Kina",
        "name:sw" : "China",
        "name:ta" : "சீனா",
        "name:te" : "చైనా",
        "name:tg" : "Хито́й",
        "name:th" : "ประเทศจีน",
        "name:ti" : "የቻይና",
        "name:tk" : "Hytaý",
        "name:tl" : "Tsina",
        "name:tn" : "China",
        "name:to" : "Siaina",
        "name:tr" : "Çin",
        "name:ts" : "Chayina",
        "name:tt" : "Кытай",
        "name:tw" : "China",
        "name:ty" : "Tinitō",
        "name:ug" : "جۇڭخۇا خەلق جۇمھۇرىيىتى",
        "name:uk" : "Китай",
        "name:ur" : "چین",
        "name:uz" : "Xitoy",
        "name:ve" : "China",
        "name:vi" : "Trung Quốc",
        "name:vo" : "Tsyinän",
        "name:wo" : "Siin",
        "name:xh" : "IShayina",
        "name:yi" : "כינע",
        "name:yo" : "Ṣáínà",
        "name:za" : "Cunghgoz",
        "name:zh" : "中国",
        "name:zu" : "IShayina",
        "name:ace" : "Cina",
        "name:ady" : "Китай",
        "name:als" : "China",
        "name:ang" : "Cīna",
        "name:arc" : "ܕܨܝܢ",
        "name:arz" : "الصين",
        "name:ast" : "China",
        "name:azb" : "چین",
        "name:bar" : "Kina",
        "name:bcl" : "Tsina",
        "name:bjn" : "Cina",
        "name:bpy" : "গণচীন",
        "name:bxr" : "Хитад Улас",
        "name:cal" : "Siila",
        "name:cdo" : "Dṳ̆ng-guók",
        "name:ceb" : "Tsina",
        "name:chr" : "ᏥᎾ",
        "name:chy" : "China",
        "name:ckb" : "چین",
        "name:cnr" : "Kina",
        "name:crh" : "Çin",
        "name:csb" : "Chińskô Lëdowô Repùblika",
        "name:diq" : "Çin",
        "name:dsb" : "Chinska",
        "name:dty" : "चीन",
        "name:eml" : "Cina",
        "name:ext" : "China",
        "name:frp" : "Ch·ina",
        "name:frr" : "Sina",
        "name:fur" : "Cine",
        "name:gag" : "Kitay",
        "name:gan" : "中國",
        "name:gom" : "चीन",
        "name:hak" : "Chûng-fà",
        "name:haw" : "Kina",
        "name:hif" : "China",
        "name:hsb" : "China",
        "name:ilo" : "Tsína",
        "name:jam" : "Chaina",
        "name:jbo" : "jugygu'e",
        "name:kaa" : "Qıtay",
        "name:kab" : "Ccinwa",
        "name:kbd" : "Хъутей",
        "name:kbp" : "Siini",
        "name:koi" : "Кина",
        "name:krc" : "Къытай",
        "name:ksh" : "Schiina",
        "name:lad" : "Kina",
        "name:lez" : "Китай",
        "name:lmo" : "Cina",
        "name:lrc" : "چین",
        "name:lzh" : "中國",
        "name:mai" : "चीन",
        "name:mdf" : "Китай",
        "name:mhr" : "Китай",
        "name:min" : "Cino",
        "name:mwl" : "China",
        "name:myv" : "Китай",
        "name:mzn" : "چین",
        "name:nah" : "China",
        "name:nan" : "Tiong-kok",
        "name:nap" : "Cina",
        "name:nds" : "Kina",
        "name:new" : "चीन",
        "name:nov" : "China",
        "name:nrm" : "Chinne",
        "name:nso" : "Tšhaena",
        "name:olo" : "Kitai",
        "name:pag" : "Jhina",
        "name:pam" : "Tsina",
        "name:pap" : "Zhōngguó",
        "name:pcd" : "Kine",
        "name:pih" : "Shiina",
        "name:pms" : "Cin-a",
        "name:pnb" : "چین",
        "name:pnt" : "Κίνα",
        "name:rmy" : "Shin",
        "name:rue" : "Кітайска",
        "name:sah" : "Кытай",
        "name:scn" : "Cina",
        "name:sco" : "Cheenae",
        "name:smn" : "Kiina",
        "name:sms" : "Ǩiina",
        "name:srn" : "Sneysa",
        "name:stq" : "China",
        "name:szl" : "China",
        "name:tet" : "Xina",
        "name:tok" : "ma Sonko",
        "name:tpi" : "Saina",
        "name:tum" : "China",
        "name:tyv" : "Кыдат",
        "name:tzl" : "Cina",
        "name:udm" : "Кита́й",
        "name:vec" : "Cina",
        "name:vep" : "Kitai",
        "name:vls" : "China",
        "name:vro" : "Hiina",
        "name:war" : "Tsina",
        "name:wuu" : "中国",
        "name:xal" : "Китдин Улс Орн",
        "name:xmf" : "ჩინეთი",
        "name:yue" : "中國",
        "name:zea" : "China",
        "name:Zsye" : "\uD83C\uDDE8\uD83C\uDDF3",
        "name:UN:ar" : "الصين",
        "name:UN:en" : "China",
        "name:UN:es" : "China",
        "name:UN:fr" : "Chine (la)",
        "name:UN:ru" : "Китай",
        "name:UN:zh" : "中国",
        "name:nds-nl" : "China",
        "name:cbk-zam" : "China",
        "name:ko-Hani" : "中國",
        "name:za-Hani" : "中國",
        "name:zh-Hans" : "中国",
        "name:zh-Hant" : "中國",
        "name:cdo-Hans" : "中国",
        "name:cdo-Hant" : "中國",
        "name:cdo-Latn" : "Dṳ̆ng-guók",
        "name:nan-Hans" : "中国",
        "name:roa-tara" : "Cine",
        "name:be-tarask" : "Кітай",
        "name:nan-Latn-tailo" : "Tiong-kok",
        "name:zh-Latn-pinyin" : "Zhōngguó",
        "name:nan-Latn-pehoeji" : "Tiong-kok"
      },
      "parent_boundary_id" : null
    },
    "geometry" : {
      "type" : "MultiPolygon",
      "coordinates" : [ [ [ [ 113.03168489999999, 8.8874896 ], [ 113.0113035, 8.7747054 ], [ 112.93276009999998, 8.6922426 ], [ 112.82005909999998, 8.6653291 ], [ 112.7891848, 8.6693546 ], [ 112.70115909999998, 9.0176673 ], [ 112.77598169999999, 9.0567646 ], [ 112.89055829999998, 9.0554166 ], [ 112.9868712, 8.9916667 ], [ 113.03168489999999, 8.8874896 ] ] ], [ [ [ 114.25050979999999, 9.5185406 ], [ 114.19051239999999, 9.5394985 ], [ 114.1400728, 9.5777816 ], [ 114.10417229999999, 9.6296041 ], [ 114.0949161, 9.6524681 ], [ 114.3201492, 9.7798576 ], [ 114.4500656, 9.5960865 ], [ 114.4222124, 9.5659832 ], [ 114.3686672, 9.5320478 ], [ 114.2957525, 9.5153927 ], [ 114.25050979999999, 9.5185406 ] ] ], [ [ [ 114.05303080000002, 10.3153534 ], [ 114.07485159999999, 10.3429537 ], [ 114.1012405, 10.3663746 ], [ 114.1301182, 10.3842568 ], [ 114.1640578, 10.397858 ], [ 114.2857874, 10.3504266 ], [ 114.327639, 10.0531851 ], [ 114.1556718, 9.9873735 ], [ 114.13349119999998, 10.0011034 ], [ 114.1179401, 10.0133642 ], [ 114.10272249999998, 10.0281005 ], [ 114.09001329999998, 10.043206 ], [ 114.0781397, 10.0606687 ], [ 114.06879849999999, 10.0779928 ], [ 114.061329, 10.0874321 ], [ 114.02102, 10.2191637 ], [ 114.02593789999999, 10.2524787 ], [ 114.03645009999998, 10.2844228 ], [ 114.05303080000002, 10.3153534 ] ] ], [ [ [ 114.77282379999998, 10.3306158 ], [ 114.7306063, 10.2696131 ], [ 114.6700202, 10.2284724 ], [ 114.5958382, 10.2112259 ], [ 114.68613710000001, 10.5840865 ], [ 114.74224949999999, 10.5384552 ], [ 114.77858039999998, 10.475508 ], [ 114.7895813, 10.4025369 ], [ 114.77282379999998, 10.3306158 ] ] ], [ [ [ 113.8827753, 10.8421481 ], [ 113.8762077, 10.9470492 ], [ 113.94576939999999, 11.0843079 ], [ 114.038047, 11.1375123 ], [ 114.10036959999998, 11.1442576 ], [ 114.1051025, 11.1424987 ], [ 114.1046771, 11.0962978 ], [ 114.1141387, 11.0495149 ], [ 114.13251429999998, 11.0069624 ], [ 114.16026439999999, 10.9676614 ], [ 114.1946236, 10.9356699 ], [ 114.23622009999998, 10.9104731 ], [ 114.14833859999999, 10.7201941 ], [ 114.0819454, 10.7069122 ], [ 114.0379802, 10.7101731 ], [ 113.94163059999998, 10.7559604 ], [ 113.8827753, 10.8421481 ] ] ], [ [ [ 117.52820289999998, 15.3074498 ], [ 117.540503, 15.3280528 ], [ 117.55525630000001, 15.347097 ], [ 117.5722535, 15.3643124 ], [ 117.590085, 15.3786257 ], [ 117.61529789999997, 15.3945018 ], [ 117.6358365, 15.4049079 ], [ 117.6574546, 15.4130312 ], [ 117.68130209999997, 15.4190475 ], [ 117.712831, 15.4237183 ], [ 117.7429017, 15.4245269 ], [ 117.7689231, 15.4225882 ], [ 117.79308329999998, 15.4178705 ], [ 117.81242890000001, 15.4119262 ], [ 117.8310771, 15.4041824 ], [ 117.8476115, 15.3954451 ], [ 117.86441459999998, 15.3844551 ], [ 117.9639838, 15.3106584 ], [ 117.99128789999997, 15.2860886 ], [ 118.0153425, 15.2571619 ], [ 118.02837909999998, 15.2369879 ], [ 118.03883630000001, 15.2154591 ], [ 118.04618879999998, 15.1942321 ], [ 118.0524645, 15.1670578 ], [ 118.0548995, 15.1447957 ], [ 118.05473689999997, 15.1224081 ], [ 118.05101439999999, 15.0926535 ], [ 118.04654850000001, 15.072107 ], [ 118.03827889999998, 15.0482158 ], [ 118.0263915, 15.023773 ], [ 118.0144692, 15.0045609 ], [ 118.0003948, 14.9867574 ], [ 117.98082489999997, 14.966818 ], [ 117.9633186, 14.9521251 ], [ 117.9362402, 14.9333078 ], [ 117.91078080000001, 14.919936 ], [ 117.89192570000002, 14.9126868 ], [ 117.87242609999997, 14.9072582 ], [ 117.8524697, 14.9037027 ], [ 117.83224880000002, 14.9020544 ], [ 117.7221777, 14.905756 ], [ 117.70345910000002, 14.9078584 ], [ 117.6836135, 14.9119534 ], [ 117.6642788, 14.9179083 ], [ 117.6443415, 14.9262868 ], [ 117.6254247, 14.9366411 ], [ 117.6088745, 14.947987 ], [ 117.5660806, 14.9865186 ], [ 117.55222819999999, 15.002707 ], [ 117.53947950000001, 15.0214184 ], [ 117.5246161, 15.0517683 ], [ 117.51495880000002, 15.0854653 ], [ 117.50310960000002, 15.2116667 ], [ 117.504578, 15.2354087 ], [ 117.50930990000002, 15.26017 ], [ 117.51671289999997, 15.2828511 ], [ 117.52820289999998, 15.3074498 ] ] ], [ [ [ 112.19639089999998, 15.7384984 ], [ 112.2001991, 15.7428246 ], [ 112.207412, 15.7457098 ], [ 112.2693102, 15.7588609 ], [ 112.28030329999999, 15.7562315 ], [ 112.2847879, 15.7513824 ], [ 112.2924088, 15.7294643 ], [ 112.29247309999998, 15.7236707 ], [ 112.2900055, 15.7202472 ], [ 112.230179, 15.684268 ], [ 112.2227761, 15.68245 ], [ 112.20820629999999, 15.6829458 ], [ 112.1964261, 15.6888542 ], [ 112.1928212, 15.6954854 ], [ 112.190698, 15.7019961 ], [ 112.1908864, 15.7145331 ], [ 112.19506429999998, 15.7345403 ], [ 112.19639089999998, 15.7384984 ] ] ], [ [ [ 113.78351039999998, 15.7033724 ], [ 113.83003069999998, 15.865835 ], [ 113.976887, 16.0298578 ], [ 114.2166765, 16.143357 ], [ 114.5124061, 16.1948586 ], [ 114.6701844, 16.2954736 ], [ 114.82491559999998, 16.3358163 ], [ 114.832104, 16.3339631 ], [ 114.90450210000002, 16.2747533 ], [ 114.9928863, 16.1360604 ], [ 114.9934227, 16.1303094 ], [ 114.96597839999998, 16.0211958 ], [ 114.7436983, 15.6844912 ], [ 114.65514250000001, 15.592188 ], [ 114.5761568, 15.5439225 ], [ 114.5707495, 15.5427855 ], [ 114.35469220000002, 15.5441706 ], [ 114.3504651, 15.5426408 ], [ 114.34806179999998, 15.5404702 ], [ 114.27684379999998, 15.421627 ], [ 114.1851766, 15.3770459 ], [ 114.1783531, 15.3749562 ], [ 114.0691979, 15.3604108 ], [ 113.88137889999999, 15.3611557 ], [ 113.6146815, 15.4877467 ], [ 113.6054761, 15.4948807 ], [ 113.53882859999999, 15.5679017 ], [ 113.5363395, 15.5747642 ], [ 113.53766989999998, 15.5801382 ], [ 113.617192, 15.6377559 ], [ 113.772567, 15.6945105 ], [ 113.7800987, 15.6985387 ], [ 113.78351039999998, 15.7033724 ] ] ], [ [ [ 112.94751, 16.7104801 ], [ 112.952402, 16.6829018 ], [ 112.9531545, 16.6535365 ], [ 112.949401, 16.6243789 ], [ 112.79850879999998, 16.0261879 ], [ 112.7917469, 16.0047622 ], [ 112.78381419999998, 15.9867114 ], [ 112.7740791, 15.9694935 ], [ 112.7626354, 15.9532744 ], [ 112.75057529999998, 15.9392452 ], [ 112.73068, 15.9207733 ], [ 112.6756452, 15.8763971 ], [ 112.65918729999999, 15.8648275 ], [ 112.63774039999998, 15.8529486 ], [ 112.6040757, 15.8383919 ], [ 112.5861014, 15.8326794 ], [ 112.54004230000001, 15.8213168 ], [ 111.2277836, 15.5751788 ], [ 111.1952119, 15.5735939 ], [ 111.16622619999998, 15.5757519 ], [ 111.1378383, 15.5817918 ], [ 111.11060559999999, 15.5915946 ], [ 111.08295879999999, 15.6058856 ], [ 111.0583787, 15.6233143 ], [ 111.03434470000002, 15.6463071 ], [ 111.01670059999998, 15.6685555 ], [ 110.997799, 15.7026738 ], [ 110.9860763, 15.7372381 ], [ 110.98271359999998, 15.7551443 ], [ 110.9810024, 15.7746682 ], [ 110.98312029999998, 15.8109576 ], [ 111.23986329999998, 17.1025734 ], [ 111.24318159999999, 17.127574 ], [ 111.24844319999998, 17.1479496 ], [ 111.255349, 17.1663914 ], [ 111.26480849999999, 17.1853277 ], [ 111.2754701, 17.2020535 ], [ 111.2887376, 17.2187712 ], [ 111.3066689, 17.2371102 ], [ 111.32195379999999, 17.2501557 ], [ 111.338504, 17.2617067 ], [ 111.35616, 17.2716523 ], [ 111.38475189999998, 17.2848921 ], [ 111.4204483, 17.2975813 ], [ 111.45884, 17.3083979 ], [ 111.503279, 17.3166028 ], [ 111.52227259999998, 17.3178126 ], [ 111.5427635, 17.3172637 ], [ 111.567418, 17.314025 ], [ 111.5921446, 17.3078046 ], [ 112.28140639999998, 17.1947852 ], [ 112.31919009999999, 17.1863266 ], [ 112.34973629999999, 17.1768995 ], [ 112.3724717, 17.1672708 ], [ 112.44384719999998, 17.1251529 ], [ 112.4688088, 17.1067185 ], [ 112.8584539, 16.8369369 ], [ 112.88195039999998, 16.8180802 ], [ 112.901411, 16.7972341 ], [ 112.9237554, 16.7659483 ], [ 112.9380961, 16.7384274 ], [ 112.94751, 16.7104801 ] ] ] ]
    }
  }, {
    "type" : "Feature",
    "properties" : {
      "osm_id" : "25248662"
    },
    "geometry" : {
      "type" : "Point",
      "coordinates" : [ 116.3912972, 39.9057136 ]
    }
  } ]
}